NIMIQ 2                 
1 27632U 02062A   26065.08051251 -.00000072  00000+0  00000+0 0  9999
2 27632   9.2086  57.9652 0006549 291.9377  93.6916  1.00272810 43151
ANIK F2                 
1 28378U 04027A   26065.14350185 -.00000054  00000+0  00000+0 0  9995
2 28378   3.0184  80.8317 0003049 297.8674  85.7153  1.00272799 40237
ANIK F1R                
1 28868U 05036A   26065.20378845 -.00000079  00000+0  00000+0 0  9997
2 28868   4.0494  77.8692 0003065 305.0471 107.0824  1.00272436 45420
ANIK F3                 
1 31102U 07009A   26064.91625618 -.00000007  00000+0  00000+0 0  9995
2 31102   0.9306  85.1903 0002806 270.3483  19.2623  1.00273922 45521
NIMIQ 4                 
1 33373U 08044A   26065.17822755 -.00000225  00000+0  00000+0 0  9999
2 33373   0.0200 218.4654 0002030 140.3596 147.2176  1.00270860 63951
TELSTAR 11N             
1 34111U 09009A   26065.00367425 -.00000257  00000+0  00000+0 0  9997
2 34111   0.0213 137.3672 0002491 201.3542 148.7616  1.00270644 45219
TERRESTAR-1             
1 35496U 09035A   26065.06044116 -.00000061  00000+0  00000+0 0  9991
2 35496   5.0955  48.8323 0002934 304.4183  81.2980  1.00273556 61107
NIMIQ 5                 
1 35873U 09050A   26065.28196212 -.00000262  00000+0  00000+0 0  9999
2 35873   0.0482 269.1190 0002635  79.4459 204.2317  1.00272648 60313
SKYTERRA 1              
1 37218U 10061A   26064.42053397 -.00000124  00000+0  00000+0 0  9996
2 37218   4.9044  50.9130 0001605 300.5443 221.7477  1.00271575 56158
TELSTAR 14R             
1 37602U 11021A   26064.49940098 -.00000288  00000+0  00000+0 0  9991
2 37602   0.0294 257.9205 0002380  93.2701 288.8177  1.00272740 54799
NIMIQ 6                 
1 38342U 12026A   26065.18350191 -.00000179  00000+0  00000+0 0  9994
2 38342   0.0513 279.8792 0002589  64.0571 154.9117  1.00270854 49381
ANIK G1                 
1 39127U 13014A   26065.27511543 -.00000079  00000+0  00000+0 0  9993
2 39127   0.0505 268.9453 0002942  57.2971 189.4792  1.00271983 47225
TELSTAR 12V             
1 41036U 15068A   26065.20155875 -.00000124  00000+0  00000+0 0  9992
2 41036   0.0105 212.4028 0002407 140.9642 228.1119  1.00272302 37595
VIASAT-2                
1 42740U 17029A   26064.07020973 -.00000274  00000+0  00000+0 0  9994
2 42740   0.0216 241.0889 0000570 139.0997  97.9902  1.00271692 32166
LEO 1 (LEO VANTAGE 1)   
1 43113U 18004C   26065.22832891  .00005704  00000+0  39548-3 0  9996
2 43113  99.2482 330.0989 0353224  35.4961 326.9196 14.67143351422387
TELSTAR 19V             
1 43562U 18059A   26064.49940098 -.00000287  00000+0  00000+0 0  9990
2 43562   0.0204 164.1099 0000696 262.4286 213.4631  1.00271487 28100
TELSTAR 18V             
1 43611U 18069A   26064.78794817  .00000000  00000+0  00000+0 0  9996
2 43611   0.0206 171.4994 0002046 178.9200 234.7731  1.00267957 27596
