[{"OBJECT_NAME":"NIMIQ 2","OBJECT_ID":"2002-062A","EPOCH":"2026-03-06T01:55:56.280864","MEAN_MOTION":1.0027281,"ECCENTRICITY":0.00065499,"INCLINATION":9.2086,"RA_OF_ASC_NODE":57.9652,"ARG_OF_PERICENTER":291.9377,"MEAN_ANOMALY":93.6916,"EPHEMERIS_TYPE":0,"CLASSIFICATION_TYPE":"U","NORAD_CAT_ID":27632,"ELEMENT_SET_NO":999,"REV_AT_EPOCH":4315,"BSTAR":0,"MEAN_MOTION_DOT":-7.2e-7,"MEAN_MOTION_DDOT":0},{"OBJECT_NAME":"ANIK F2","OBJECT_ID":"2004-027A","EPOCH":"2026-03-06T03:26:38.559840","MEAN_MOTION":1.00272799,"ECCENTRICITY":0.0003049,"INCLINATION":3.0184,"RA_OF_ASC_NODE":80.8317,"ARG_OF_PERICENTER":297.8674,"MEAN_ANOMALY":85.7153,"EPHEMERIS_TYPE":0,"CLASSIFICATION_TYPE":"U","NORAD_CAT_ID":28378,"ELEMENT_SET_NO":999,"REV_AT_EPOCH":4023,"BSTAR":0,"MEAN_MOTION_DOT":-5.4e-7,"MEAN_MOTION_DDOT":0},{"OBJECT_NAME":"ANIK F1R","OBJECT_ID":"2005-036A","EPOCH":"2026-03-06T04:53:27.322080","MEAN_MOTION":1.00272436,"ECCENTRICITY":0.00030659,"INCLINATION":4.0494,"RA_OF_ASC_NODE":77.8692,"ARG_OF_PERICENTER":305.0471,"MEAN_ANOMALY":107.0824,"EPHEMERIS_TYPE":0,"CLASSIFICATION_TYPE":"U","NORAD_CAT_ID":28868,"ELEMENT_SET_NO":999,"REV_AT_EPOCH":4542,"BSTAR":0,"MEAN_MOTION_DOT":-7.9e-7,"MEAN_MOTION_DDOT":0},{"OBJECT_NAME":"ANIK F3","OBJECT_ID":"2007-009A","EPOCH":"2026-03-05T21:59:24.533952","MEAN_MOTION":1.00273922,"ECCENTRICITY":0.00028064,"INCLINATION":0.9306,"RA_OF_ASC_NODE":85.1903,"ARG_OF_PERICENTER":270.3483,"MEAN_ANOMALY":19.2623,"EPHEMERIS_TYPE":0,"CLASSIFICATION_TYPE":"U","NORAD_CAT_ID":31102,"ELEMENT_SET_NO":999,"REV_AT_EPOCH":4552,"BSTAR":0,"MEAN_MOTION_DOT":-7.0e-8,"MEAN_MOTION_DDOT":0},{"OBJECT_NAME":"NIMIQ 4","OBJECT_ID":"2008-044A","EPOCH":"2026-03-06T04:16:38.860320","MEAN_MOTION":1.0027086,"ECCENTRICITY":0.00020302,"INCLINATION":0.02,"RA_OF_ASC_NODE":218.4654,"ARG_OF_PERICENTER":140.3596,"MEAN_ANOMALY":147.2176,"EPHEMERIS_TYPE":0,"CLASSIFICATION_TYPE":"U","NORAD_CAT_ID":33373,"ELEMENT_SET_NO":999,"REV_AT_EPOCH":6395,"BSTAR":0,"MEAN_MOTION_DOT":-2.25e-6,"MEAN_MOTION_DDOT":0},{"OBJECT_NAME":"TELSTAR 11N","OBJECT_ID":"2009-009A","EPOCH":"2026-03-06T00:05:17.455200","MEAN_MOTION":1.00270644,"ECCENTRICITY":0.00024913,"INCLINATION":0.0213,"RA_OF_ASC_NODE":137.3672,"ARG_OF_PERICENTER":201.3542,"MEAN_ANOMALY":148.7616,"EPHEMERIS_TYPE":0,"CLASSIFICATION_TYPE":"U","NORAD_CAT_ID":34111,"ELEMENT_SET_NO":999,"REV_AT_EPOCH":4521,"BSTAR":0,"MEAN_MOTION_DOT":-2.57e-6,"MEAN_MOTION_DDOT":0},{"OBJECT_NAME":"TERRESTAR-1","OBJECT_ID":"2009-035A","EPOCH":"2026-03-06T01:27:02.116224","MEAN_MOTION":1.00273556,"ECCENTRICITY":0.00029349,"INCLINATION":5.0955,"RA_OF_ASC_NODE":48.8323,"ARG_OF_PERICENTER":304.4183,"MEAN_ANOMALY":81.298,"EPHEMERIS_TYPE":0,"CLASSIFICATION_TYPE":"U","NORAD_CAT_ID":35496,"ELEMENT_SET_NO":999,"REV_AT_EPOCH":6110,"BSTAR":0,"MEAN_MOTION_DOT":-6.1e-7,"MEAN_MOTION_DDOT":0},{"OBJECT_NAME":"NIMIQ 5","OBJECT_ID":"2009-050A","EPOCH":"2026-03-06T06:46:01.527168","MEAN_MOTION":1.00272648,"ECCENTRICITY":0.00026353,"INCLINATION":0.0482,"RA_OF_ASC_NODE":269.119,"ARG_OF_PERICENTER":79.4459,"MEAN_ANOMALY":204.2317,"EPHEMERIS_TYPE":0,"CLASSIFICATION_TYPE":"U","NORAD_CAT_ID":35873,"ELEMENT_SET_NO":999,"REV_AT_EPOCH":6031,"BSTAR":0,"MEAN_MOTION_DOT":-2.62e-6,"MEAN_MOTION_DDOT":0},{"OBJECT_NAME":"SKYTERRA 1","OBJECT_ID":"2010-061A","EPOCH":"2026-03-05T10:05:34.135008","MEAN_MOTION":1.00271575,"ECCENTRICITY":0.0001605,"INCLINATION":4.9044,"RA_OF_ASC_NODE":50.913,"ARG_OF_PERICENTER":300.5443,"MEAN_ANOMALY":221.7477,"EPHEMERIS_TYPE":0,"CLASSIFICATION_TYPE":"U","NORAD_CAT_ID":37218,"ELEMENT_SET_NO":999,"REV_AT_EPOCH":5615,"BSTAR":0,"MEAN_MOTION_DOT":-1.24e-6,"MEAN_MOTION_DDOT":0},{"OBJECT_NAME":"TELSTAR 14R","OBJECT_ID":"2011-021A","EPOCH":"2026-03-05T11:59:08.244672","MEAN_MOTION":1.0027274,"ECCENTRICITY":0.000238,"INCLINATION":0.0294,"RA_OF_ASC_NODE":257.9205,"ARG_OF_PERICENTER":93.2701,"MEAN_ANOMALY":288.8177,"EPHEMERIS_TYPE":0,"CLASSIFICATION_TYPE":"U","NORAD_CAT_ID":37602,"ELEMENT_SET_NO":999,"REV_AT_EPOCH":5479,"BSTAR":0,"MEAN_MOTION_DOT":-2.88e-6,"MEAN_MOTION_DDOT":0},{"OBJECT_NAME":"NIMIQ 6","OBJECT_ID":"2012-026A","EPOCH":"2026-03-06T04:24:14.565024","MEAN_MOTION":1.00270854,"ECCENTRICITY":0.00025896,"INCLINATION":0.0513,"RA_OF_ASC_NODE":279.8792,"ARG_OF_PERICENTER":64.0571,"MEAN_ANOMALY":154.9117,"EPHEMERIS_TYPE":0,"CLASSIFICATION_TYPE":"U","NORAD_CAT_ID":38342,"ELEMENT_SET_NO":999,"REV_AT_EPOCH":4938,"BSTAR":0,"MEAN_MOTION_DOT":-1.79e-6,"MEAN_MOTION_DDOT":0},{"OBJECT_NAME":"ANIK G1","OBJECT_ID":"2013-014A","EPOCH":"2026-03-06T06:36:09.973152","MEAN_MOTION":1.00271983,"ECCENTRICITY":0.00029424,"INCLINATION":0.0505,"RA_OF_ASC_NODE":268.9453,"ARG_OF_PERICENTER":57.2971,"MEAN_ANOMALY":189.4792,"EPHEMERIS_TYPE":0,"CLASSIFICATION_TYPE":"U","NORAD_CAT_ID":39127,"ELEMENT_SET_NO":999,"REV_AT_EPOCH":4722,"BSTAR":0,"MEAN_MOTION_DOT":-7.9e-7,"MEAN_MOTION_DDOT":0},{"OBJECT_NAME":"TELSTAR 12V","OBJECT_ID":"2015-068A","EPOCH":"2026-03-06T04:50:14.676000","MEAN_MOTION":1.00272302,"ECCENTRICITY":0.00024073,"INCLINATION":0.0105,"RA_OF_ASC_NODE":212.4028,"ARG_OF_PERICENTER":140.9642,"MEAN_ANOMALY":228.1119,"EPHEMERIS_TYPE":0,"CLASSIFICATION_TYPE":"U","NORAD_CAT_ID":41036,"ELEMENT_SET_NO":999,"REV_AT_EPOCH":3759,"BSTAR":0,"MEAN_MOTION_DOT":-1.24e-6,"MEAN_MOTION_DDOT":0},{"OBJECT_NAME":"VIASAT-2","OBJECT_ID":"2017-029A","EPOCH":"2026-03-05T01:41:06.120672","MEAN_MOTION":1.00271692,"ECCENTRICITY":5.707e-5,"INCLINATION":0.0216,"RA_OF_ASC_NODE":241.0889,"ARG_OF_PERICENTER":139.0997,"MEAN_ANOMALY":97.9902,"EPHEMERIS_TYPE":0,"CLASSIFICATION_TYPE":"U","NORAD_CAT_ID":42740,"ELEMENT_SET_NO":999,"REV_AT_EPOCH":3216,"BSTAR":0,"MEAN_MOTION_DOT":-2.74e-6,"MEAN_MOTION_DDOT":0},{"OBJECT_NAME":"LEO 1 (LEO VANTAGE 1)","OBJECT_ID":"2018-004C","EPOCH":"2026-03-06T05:28:47.617824","MEAN_MOTION":14.67143351,"ECCENTRICITY":0.03532244,"INCLINATION":99.2482,"RA_OF_ASC_NODE":330.0989,"ARG_OF_PERICENTER":35.4961,"MEAN_ANOMALY":326.9196,"EPHEMERIS_TYPE":0,"CLASSIFICATION_TYPE":"U","NORAD_CAT_ID":43113,"ELEMENT_SET_NO":999,"REV_AT_EPOCH":42238,"BSTAR":0.00039548305,"MEAN_MOTION_DOT":5.704e-5,"MEAN_MOTION_DDOT":0},{"OBJECT_NAME":"TELSTAR 19V","OBJECT_ID":"2018-059A","EPOCH":"2026-03-05T11:59:08.244672","MEAN_MOTION":1.00271487,"ECCENTRICITY":6.96e-5,"INCLINATION":0.0204,"RA_OF_ASC_NODE":164.1099,"ARG_OF_PERICENTER":262.4286,"MEAN_ANOMALY":213.4631,"EPHEMERIS_TYPE":0,"CLASSIFICATION_TYPE":"U","NORAD_CAT_ID":43562,"ELEMENT_SET_NO":999,"REV_AT_EPOCH":2810,"BSTAR":0,"MEAN_MOTION_DOT":-2.87e-6,"MEAN_MOTION_DDOT":0},{"OBJECT_NAME":"TELSTAR 18V","OBJECT_ID":"2018-069A","EPOCH":"2026-03-05T18:54:38.721888","MEAN_MOTION":1.00267957,"ECCENTRICITY":0.00020461,"INCLINATION":0.0206,"RA_OF_ASC_NODE":171.4994,"ARG_OF_PERICENTER":178.92,"MEAN_ANOMALY":234.7731,"EPHEMERIS_TYPE":0,"CLASSIFICATION_TYPE":"U","NORAD_CAT_ID":43611,"ELEMENT_SET_NO":999,"REV_AT_EPOCH":2759,"BSTAR":0,"MEAN_MOTION_DOT":0,"MEAN_MOTION_DDOT":0}]
